<?xml version="1.0" encoding="UTF-8"?>
<ndm xmlns:xsi="http://www.w3.org/2001/XMLSchema-instance" xsi:noNamespaceSchemaLocation="https://sanaregistry.org/r/ndmxml_unqualified/ndmxml-2.0.0-master-2.0.xsd">
<omm id="CCSDS_OMM_VERS" version="2.0">
<header><CREATION_DATE/><ORIGINATOR/></header><body><segment><metadata><OBJECT_NAME>ORBCOMM FM24</OBJECT_NAME><OBJECT_ID>1998-053D</OBJECT_ID><CENTER_NAME>EARTH</CENTER_NAME><REF_FRAME>TEME</REF_FRAME><TIME_SYSTEM>UTC</TIME_SYSTEM><MEAN_ELEMENT_THEORY>SGP4</MEAN_ELEMENT_THEORY></metadata><data><meanElements><EPOCH>2024-10-18T09:20:42.762048</EPOCH><MEAN_MOTION>14.36705875</MEAN_MOTION><ECCENTRICITY>.000084</ECCENTRICITY><INCLINATION>45.0089</INCLINATION><RA_OF_ASC_NODE>334.5001</RA_OF_ASC_NODE><ARG_OF_PERICENTER>270.5444</ARG_OF_PERICENTER><MEAN_ANOMALY>89.5308</MEAN_ANOMALY></meanElements><tleParameters><EPHEMERIS_TYPE>0</EPHEMERIS_TYPE><CLASSIFICATION_TYPE>U</CLASSIFICATION_TYPE><NORAD_CAT_ID>25478</NORAD_CAT_ID><ELEMENT_SET_NO>999</ELEMENT_SET_NO><REV_AT_EPOCH>36265</REV_AT_EPOCH><BSTAR>.19354E-2</BSTAR><MEAN_MOTION_DOT>.5618E-4</MEAN_MOTION_DOT><MEAN_MOTION_DDOT>0</MEAN_MOTION_DDOT></tleParameters></data></segment></body></omm>
<omm id="CCSDS_OMM_VERS" version="2.0">
<header><CREATION_DATE/><ORIGINATOR/></header><body><segment><metadata><OBJECT_NAME>ORBCOMM FM25</OBJECT_NAME><OBJECT_ID>1998-053E</OBJECT_ID><CENTER_NAME>EARTH</CENTER_NAME><REF_FRAME>TEME</REF_FRAME><TIME_SYSTEM>UTC</TIME_SYSTEM><MEAN_ELEMENT_THEORY>SGP4</MEAN_ELEMENT_THEORY></metadata><data><meanElements><EPOCH>2024-10-18T10:15:04.069152</EPOCH><MEAN_MOTION>14.36694368</MEAN_MOTION><ECCENTRICITY>.0001792</ECCENTRICITY><INCLINATION>45.0077</INCLINATION><RA_OF_ASC_NODE>332.5746</RA_OF_ASC_NODE><ARG_OF_PERICENTER>136.4407</ARG_OF_PERICENTER><MEAN_ANOMALY>223.6582</MEAN_ANOMALY></meanElements><tleParameters><EPHEMERIS_TYPE>0</EPHEMERIS_TYPE><CLASSIFICATION_TYPE>U</CLASSIFICATION_TYPE><NORAD_CAT_ID>25479</NORAD_CAT_ID><ELEMENT_SET_NO>999</ELEMENT_SET_NO><REV_AT_EPOCH>36295</REV_AT_EPOCH><BSTAR>.18365E-2</BSTAR><MEAN_MOTION_DOT>.5323E-4</MEAN_MOTION_DOT><MEAN_MOTION_DDOT>0</MEAN_MOTION_DDOT></tleParameters></data></segment></body></omm>
<omm id="CCSDS_OMM_VERS" version="2.0">
<header><CREATION_DATE/><ORIGINATOR/></header><body><segment><metadata><OBJECT_NAME>ORBCOMM FM26</OBJECT_NAME><OBJECT_ID>1998-053F</OBJECT_ID><CENTER_NAME>EARTH</CENTER_NAME><REF_FRAME>TEME</REF_FRAME><TIME_SYSTEM>UTC</TIME_SYSTEM><MEAN_ELEMENT_THEORY>SGP4</MEAN_ELEMENT_THEORY></metadata><data><meanElements><EPOCH>2024-10-18T10:24:54.357408</EPOCH><MEAN_MOTION>14.35967968</MEAN_MOTION><ECCENTRICITY>.0004363</ECCENTRICITY><INCLINATION>45.0072</INCLINATION><RA_OF_ASC_NODE>327.4233</RA_OF_ASC_NODE><ARG_OF_PERICENTER>154.1413</ARG_OF_PERICENTER><MEAN_ANOMALY>205.9653</MEAN_ANOMALY></meanElements><tleParameters><EPHEMERIS_TYPE>0</EPHEMERIS_TYPE><CLASSIFICATION_TYPE>U</CLASSIFICATION_TYPE><NORAD_CAT_ID>25480</NORAD_CAT_ID><ELEMENT_SET_NO>999</ELEMENT_SET_NO><REV_AT_EPOCH>36288</REV_AT_EPOCH><BSTAR>.18278E-2</BSTAR><MEAN_MOTION_DOT>.5218E-4</MEAN_MOTION_DOT><MEAN_MOTION_DDOT>0</MEAN_MOTION_DDOT></tleParameters></data></segment></body></omm>
<omm id="CCSDS_OMM_VERS" version="2.0">
<header><CREATION_DATE/><ORIGINATOR/></header><body><segment><metadata><OBJECT_NAME>ORBCOMM FM27</OBJECT_NAME><OBJECT_ID>1998-053G</OBJECT_ID><CENTER_NAME>EARTH</CENTER_NAME><REF_FRAME>TEME</REF_FRAME><TIME_SYSTEM>UTC</TIME_SYSTEM><MEAN_ELEMENT_THEORY>SGP4</MEAN_ELEMENT_THEORY></metadata><data><meanElements><EPOCH>2024-10-18T09:59:47.169888</EPOCH><MEAN_MOTION>14.36683577</MEAN_MOTION><ECCENTRICITY>.0002424</ECCENTRICITY><INCLINATION>45.0061</INCLINATION><RA_OF_ASC_NODE>332.8808</RA_OF_ASC_NODE><ARG_OF_PERICENTER>273.2074</ARG_OF_PERICENTER><MEAN_ANOMALY>86.8496</MEAN_ANOMALY></meanElements><tleParameters><EPHEMERIS_TYPE>0</EPHEMERIS_TYPE><CLASSIFICATION_TYPE>U</CLASSIFICATION_TYPE><NORAD_CAT_ID>25481</NORAD_CAT_ID><ELEMENT_SET_NO>999</ELEMENT_SET_NO><REV_AT_EPOCH>36288</REV_AT_EPOCH><BSTAR>.2035E-2</BSTAR><MEAN_MOTION_DOT>.5913E-4</MEAN_MOTION_DOT><MEAN_MOTION_DDOT>0</MEAN_MOTION_DDOT></tleParameters></data></segment></body></omm>
<omm id="CCSDS_OMM_VERS" version="2.0">
<header><CREATION_DATE/><ORIGINATOR/></header><body><segment><metadata><OBJECT_NAME>ORBCOMM FM28</OBJECT_NAME><OBJECT_ID>1998-053H</OBJECT_ID><CENTER_NAME>EARTH</CENTER_NAME><REF_FRAME>TEME</REF_FRAME><TIME_SYSTEM>UTC</TIME_SYSTEM><MEAN_ELEMENT_THEORY>SGP4</MEAN_ELEMENT_THEORY></metadata><data><meanElements><EPOCH>2024-10-18T08:35:43.823904</EPOCH><MEAN_MOTION>14.37021145</MEAN_MOTION><ECCENTRICITY>.0002667</ECCENTRICITY><INCLINATION>45.0051</INCLINATION><RA_OF_ASC_NODE>271.1294</RA_OF_ASC_NODE><ARG_OF_PERICENTER>193.6274</ARG_OF_PERICENTER><MEAN_ANOMALY>166.4503</MEAN_ANOMALY></meanElements><tleParameters><EPHEMERIS_TYPE>0</EPHEMERIS_TYPE><CLASSIFICATION_TYPE>U</CLASSIFICATION_TYPE><NORAD_CAT_ID>25482</NORAD_CAT_ID><ELEMENT_SET_NO>999</ELEMENT_SET_NO><REV_AT_EPOCH>36355</REV_AT_EPOCH><BSTAR>.1911E-2</BSTAR><MEAN_MOTION_DOT>.5582E-4</MEAN_MOTION_DOT><MEAN_MOTION_DDOT>0</MEAN_MOTION_DDOT></tleParameters></data></segment></body></omm>
<omm id="CCSDS_OMM_VERS" version="2.0">
<header><CREATION_DATE/><ORIGINATOR/></header><body><segment><metadata><OBJECT_NAME>ORBCOMM FM30</OBJECT_NAME><OBJECT_ID>1999-065A</OBJECT_ID><CENTER_NAME>EARTH</CENTER_NAME><REF_FRAME>TEME</REF_FRAME><TIME_SYSTEM>UTC</TIME_SYSTEM><MEAN_ELEMENT_THEORY>SGP4</MEAN_ELEMENT_THEORY></metadata><data><meanElements><EPOCH>2024-10-18T07:27:40.403520</EPOCH><MEAN_MOTION>14.36112199</MEAN_MOTION><ECCENTRICITY>.0005815</ECCENTRICITY><INCLINATION>45.0299</INCLINATION><RA_OF_ASC_NODE>153.6893</RA_OF_ASC_NODE><ARG_OF_PERICENTER>234.1052</ARG_OF_PERICENTER><MEAN_ANOMALY>125.9256</MEAN_ANOMALY></meanElements><tleParameters><EPHEMERIS_TYPE>0</EPHEMERIS_TYPE><CLASSIFICATION_TYPE>U</CLASSIFICATION_TYPE><NORAD_CAT_ID>25980</NORAD_CAT_ID><ELEMENT_SET_NO>999</ELEMENT_SET_NO><REV_AT_EPOCH>29966</REV_AT_EPOCH><BSTAR>.15409E-2</BSTAR><MEAN_MOTION_DOT>.439E-4</MEAN_MOTION_DOT><MEAN_MOTION_DDOT>0</MEAN_MOTION_DDOT></tleParameters></data></segment></body></omm>
<omm id="CCSDS_OMM_VERS" version="2.0">
<header><CREATION_DATE/><ORIGINATOR/></header><body><segment><metadata><OBJECT_NAME>ORBCOMM FM31</OBJECT_NAME><OBJECT_ID>1999-065B</OBJECT_ID><CENTER_NAME>EARTH</CENTER_NAME><REF_FRAME>TEME</REF_FRAME><TIME_SYSTEM>UTC</TIME_SYSTEM><MEAN_ELEMENT_THEORY>SGP4</MEAN_ELEMENT_THEORY></metadata><data><meanElements><EPOCH>2024-10-17T23:59:15.882432</EPOCH><MEAN_MOTION>14.36077205</MEAN_MOTION><ECCENTRICITY>.0003105</ECCENTRICITY><INCLINATION>45.0211</INCLINATION><RA_OF_ASC_NODE>148.7520</RA_OF_ASC_NODE><ARG_OF_PERICENTER>257.0788</ARG_OF_PERICENTER><MEAN_ANOMALY>102.9713</MEAN_ANOMALY></meanElements><tleParameters><EPHEMERIS_TYPE>0</EPHEMERIS_TYPE><CLASSIFICATION_TYPE>U</CLASSIFICATION_TYPE><NORAD_CAT_ID>25981</NORAD_CAT_ID><ELEMENT_SET_NO>999</ELEMENT_SET_NO><REV_AT_EPOCH>29917</REV_AT_EPOCH><BSTAR>.13225E-2</BSTAR><MEAN_MOTION_DOT>.3744E-4</MEAN_MOTION_DOT><MEAN_MOTION_DDOT>0</MEAN_MOTION_DDOT></tleParameters></data></segment></body></omm>
<omm id="CCSDS_OMM_VERS" version="2.0">
<header><CREATION_DATE/><ORIGINATOR/></header><body><segment><metadata><OBJECT_NAME>ORBCOMM FM32</OBJECT_NAME><OBJECT_ID>1999-065C</OBJECT_ID><CENTER_NAME>EARTH</CENTER_NAME><REF_FRAME>TEME</REF_FRAME><TIME_SYSTEM>UTC</TIME_SYSTEM><MEAN_ELEMENT_THEORY>SGP4</MEAN_ELEMENT_THEORY></metadata><data><meanElements><EPOCH>2024-10-18T08:53:23.258976</EPOCH><MEAN_MOTION>14.35108836</MEAN_MOTION><ECCENTRICITY>.0005155</ECCENTRICITY><INCLINATION>45.0141</INCLINATION><RA_OF_ASC_NODE>161.9335</RA_OF_ASC_NODE><ARG_OF_PERICENTER>263.5184</ARG_OF_PERICENTER><MEAN_ANOMALY>96.5076</MEAN_ANOMALY></meanElements><tleParameters><EPHEMERIS_TYPE>0</EPHEMERIS_TYPE><CLASSIFICATION_TYPE>U</CLASSIFICATION_TYPE><NORAD_CAT_ID>25982</NORAD_CAT_ID><ELEMENT_SET_NO>999</ELEMENT_SET_NO><REV_AT_EPOCH>29984</REV_AT_EPOCH><BSTAR>.16118E-2</BSTAR><MEAN_MOTION_DOT>.4504E-4</MEAN_MOTION_DOT><MEAN_MOTION_DDOT>0</MEAN_MOTION_DDOT></tleParameters></data></segment></body></omm>

</ndm>
