ORBCOMM FM24            
1 25478U 98053D   24292.38938382  .00005618  00000+0  19354-2 0  9997
2 25478  45.0089 334.5001 0000840 270.5444  89.5308 14.36705875362659
ORBCOMM FM25            
1 25479U 98053E   24292.42713043  .00005323  00000+0  18365-2 0  9992
2 25479  45.0077 332.5746 0001792 136.4407 223.6582 14.36694368362959
ORBCOMM FM26            
1 25480U 98053F   24292.43396247  .00005218  00000+0  18278-2 0  9994
2 25480  45.0072 327.4233 0004363 154.1413 205.9653 14.35967968362883
ORBCOMM FM27            
1 25481U 98053G   24292.41651817  .00005913  00000+0  20350-2 0  9996
2 25481  45.0061 332.8808 0002424 273.2074  86.8496 14.36683577362885
ORBCOMM FM28            
1 25482U 98053H   24292.35814611  .00005582  00000+0  19110-2 0  9997
2 25482  45.0051 271.1294 0002667 193.6274 166.4503 14.37021145363552
ORBCOMM FM30            
1 25980U 99065A   24292.31088430  .00004390  00000+0  15409-2 0  9995
2 25980  45.0299 153.6893 0005815 234.1052 125.9256 14.36112199299665
ORBCOMM FM31            
1 25981U 99065B   24291.99948938  .00003744  00000+0  13225-2 0  9993
2 25981  45.0211 148.7520 0003105 257.0788 102.9713 14.36077205299179
ORBCOMM FM32            
1 25982U 99065C   24292.37040809  .00004504  00000+0  16118-2 0  9996
2 25982  45.0141 161.9335 0005155 263.5184  96.5076 14.35108836299840
